TIROS N                 
1 11060U 78096A   25106.69243452  .00000366  00000+0  19467-3 0  9991
2 11060  98.4933 141.2120 0011183  43.7645 316.4416 14.19163357618257
NOAA 15                 
1 25338U 98030A   25106.89007669  .00000663  00000+0  29021-3 0  9991
2 25338  98.5405 133.3017 0010926 151.1045 209.0743 14.26945406400490
NOAA 18                 
1 28654U 05018A   25106.89920532  .00000689  00000+0  38892-3 0  9996
2 28654  98.8427 186.9777 0013062 282.0378  77.9331 14.13578825 26082
NOAA 19                 
1 33591U 09005A   25106.89691659  .00000652  00000+0  37139-3 0  9990
2 33591  99.0011 171.2913 0014413 152.1009 208.0939 14.13343679834263
SUOMI NPP               
1 37849U 11061A   25106.90224921  .00000373  00000+0  19761-3 0  9992
2 37849  98.7544  46.7736 0002483  97.8144 262.3314 14.19520877697965
NOAA 20 (JPSS-1)        
1 43013U 17073A   25106.91794117  .00000355  00000+0  18914-3 0  9990
2 43013  98.7383  46.1950 0002236  84.9877 275.1555 14.19527166383996
